[{"OBJECT_NAME":"STARLINK-36385","OBJECT_ID":"2026-025AA","EPOCH":"2026-03-03T06:01:29.456832","MEAN_MOTION":15.8106126,"ECCENTRICITY":0.0004579,"INCLINATION":97.2867,"RA_OF_ASC_NODE":173.6168,"ARG_OF_PERICENTER":292.142,"MEAN_ANOMALY":67.9362,"EPHEMERIS_TYPE":0,"CLASSIFICATION_TYPE":"U","NORAD_CAT_ID":67717,"ELEMENT_SET_NO":999,"REV_AT_EPOCH":493,"BSTAR":0.0018605,"MEAN_MOTION_DOT":0.00376331,"MEAN_MOTION_DDOT":0},{"OBJECT_NAME":"CZ-2F DEB","OBJECT_ID":"2026-024E","EPOCH":"2026-02-27T12:10:33.167712","MEAN_MOTION":15.20915897,"ECCENTRICITY":0.02465096,"INCLINATION":50.3169,"RA_OF_ASC_NODE":68.583,"ARG_OF_PERICENTER":240.0171,"MEAN_ANOMALY":117.6115,"EPHEMERIS_TYPE":0,"CLASSIFICATION_TYPE":"U","NORAD_CAT_ID":67718,"ELEMENT_SET_NO":999,"REV_AT_EPOCH":308,"BSTAR":0.0035886422,"MEAN_MOTION_DOT":0.00191604,"MEAN_MOTION_DDOT":0},{"OBJECT_NAME":"CZ-2F DEB","OBJECT_ID":"2026-024F","EPOCH":"2026-03-03T10:19:56.274816","MEAN_MOTION":15.01613849,"ECCENTRICITY":0.0317922,"INCLINATION":49.7921,"RA_OF_ASC_NODE":52.0253,"ARG_OF_PERICENTER":246.3783,"MEAN_ANOMALY":110.3486,"EPHEMERIS_TYPE":0,"CLASSIFICATION_TYPE":"U","NORAD_CAT_ID":67719,"ELEMENT_SET_NO":999,"REV_AT_EPOCH":330,"BSTAR":0.0037659,"MEAN_MOTION_DOT":0.00154944,"MEAN_MOTION_DDOT":0},{"OBJECT_NAME":"CZ-2F DEB","OBJECT_ID":"2026-024G","EPOCH":"2026-03-03T09:46:04.107936","MEAN_MOTION":14.98925947,"ECCENTRICITY":0.0328736,"INCLINATION":49.8313,"RA_OF_ASC_NODE":52.6569,"ARG_OF_PERICENTER":242.4792,"MEAN_ANOMALY":114.2388,"EPHEMERIS_TYPE":0,"CLASSIFICATION_TYPE":"U","NORAD_CAT_ID":67720,"ELEMENT_SET_NO":999,"REV_AT_EPOCH":361,"BSTAR":0.0037157,"MEAN_MOTION_DOT":0.00148745,"MEAN_MOTION_DDOT":0},{"OBJECT_NAME":"STARLINK-36772","OBJECT_ID":"2026-026A","EPOCH":"2026-03-03T12:00:00.998784","MEAN_MOTION":15.72295657,"ECCENTRICITY":0.0001505,"INCLINATION":97.2842,"RA_OF_ASC_NODE":116.8549,"ARG_OF_PERICENTER":71.7577,"MEAN_ANOMALY":349.9455,"EPHEMERIS_TYPE":0,"CLASSIFICATION_TYPE":"U","NORAD_CAT_ID":67721,"ELEMENT_SET_NO":999,"REV_AT_EPOCH":431,"BSTAR":-0.015948,"MEAN_MOTION_DOT":-0.01837785,"MEAN_MOTION_DDOT":0},{"OBJECT_NAME":"STARLINK-36796","OBJECT_ID":"2026-026B","EPOCH":"2026-03-03T12:00:00.998784","MEAN_MOTION":15.71425233,"ECCENTRICITY":0.0001531,"INCLINATION":97.2841,"RA_OF_ASC_NODE":116.8554,"ARG_OF_PERICENTER":76.8849,"MEAN_ANOMALY":345.8699,"EPHEMERIS_TYPE":0,"CLASSIFICATION_TYPE":"U","NORAD_CAT_ID":67722,"ELEMENT_SET_NO":999,"REV_AT_EPOCH":431,"BSTAR":-0.016561,"MEAN_MOTION_DOT":-0.01838979,"MEAN_MOTION_DDOT":0},{"OBJECT_NAME":"STARLINK-36369","OBJECT_ID":"2026-026C","EPOCH":"2026-03-03T12:00:00.998784","MEAN_MOTION":15.71828826,"ECCENTRICITY":0.000158,"INCLINATION":97.2839,"RA_OF_ASC_NODE":116.8593,"ARG_OF_PERICENTER":71.2652,"MEAN_ANOMALY":0.4676,"EPHEMERIS_TYPE":0,"CLASSIFICATION_TYPE":"U","NORAD_CAT_ID":67723,"ELEMENT_SET_NO":999,"REV_AT_EPOCH":431,"BSTAR":-0.016301,"MEAN_MOTION_DOT":-0.01841083,"MEAN_MOTION_DDOT":0},{"OBJECT_NAME":"STARLINK-36752","OBJECT_ID":"2026-026D","EPOCH":"2026-03-03T12:00:00.998784","MEAN_MOTION":15.73123117,"ECCENTRICITY":0.0001631,"INCLINATION":97.2839,"RA_OF_ASC_NODE":116.8668,"ARG_OF_PERICENTER":74.6897,"MEAN_ANOMALY":13.8605,"EPHEMERIS_TYPE":0,"CLASSIFICATION_TYPE":"U","NORAD_CAT_ID":67724,"ELEMENT_SET_NO":999,"REV_AT_EPOCH":431,"BSTAR":-0.015458,"MEAN_MOTION_DOT":-0.018447,"MEAN_MOTION_DDOT":0},{"OBJECT_NAME":"STARLINK-36754","OBJECT_ID":"2026-026E","EPOCH":"2026-03-03T12:00:00.998784","MEAN_MOTION":15.70535069,"ECCENTRICITY":0.0001587,"INCLINATION":97.284,"RA_OF_ASC_NODE":116.8608,"ARG_OF_PERICENTER":72.811,"MEAN_ANOMALY":1.9919,"EPHEMERIS_TYPE":0,"CLASSIFICATION_TYPE":"U","NORAD_CAT_ID":67725,"ELEMENT_SET_NO":999,"REV_AT_EPOCH":431,"BSTAR":-0.01719,"MEAN_MOTION_DOT":-0.01838592,"MEAN_MOTION_DDOT":0},{"OBJECT_NAME":"STARLINK-36755","OBJECT_ID":"2026-026F","EPOCH":"2026-03-03T12:00:00.998784","MEAN_MOTION":15.68084521,"ECCENTRICITY":0.0001482,"INCLINATION":97.284,"RA_OF_ASC_NODE":116.8538,"ARG_OF_PERICENTER":75.0841,"MEAN_ANOMALY":343.3795,"EPHEMERIS_TYPE":0,"CLASSIFICATION_TYPE":"U","NORAD_CAT_ID":67726,"ELEMENT_SET_NO":999,"REV_AT_EPOCH":431,"BSTAR":-0.018977,"MEAN_MOTION_DOT":-0.01833819,"MEAN_MOTION_DDOT":0},{"OBJECT_NAME":"STARLINK-36741","OBJECT_ID":"2026-026G","EPOCH":"2026-03-03T12:00:00.998784","MEAN_MOTION":15.69209123,"ECCENTRICITY":0.0001552,"INCLINATION":97.284,"RA_OF_ASC_NODE":116.8609,"ARG_OF_PERICENTER":73.9124,"MEAN_ANOMALY":1.1601,"EPHEMERIS_TYPE":0,"CLASSIFICATION_TYPE":"U","NORAD_CAT_ID":67727,"ELEMENT_SET_NO":999,"REV_AT_EPOCH":431,"BSTAR":-0.018127,"MEAN_MOTION_DOT":-0.01834892,"MEAN_MOTION_DDOT":0},{"OBJECT_NAME":"STARLINK-36757","OBJECT_ID":"2026-026H","EPOCH":"2026-03-03T12:00:00.998784","MEAN_MOTION":15.73687152,"ECCENTRICITY":0.000164,"INCLINATION":97.2839,"RA_OF_ASC_NODE":116.8783,"ARG_OF_PERICENTER":72.4571,"MEAN_ANOMALY":45.1476,"EPHEMERIS_TYPE":0,"CLASSIFICATION_TYPE":"U","NORAD_CAT_ID":67728,"ELEMENT_SET_NO":999,"REV_AT_EPOCH":431,"BSTAR":-0.015136,"MEAN_MOTION_DOT":-0.01849971,"MEAN_MOTION_DDOT":0},{"OBJECT_NAME":"STARLINK-36751","OBJECT_ID":"2026-026J","EPOCH":"2026-03-03T12:00:00.998784","MEAN_MOTION":15.74249628,"ECCENTRICITY":0.0001753,"INCLINATION":97.2842,"RA_OF_ASC_NODE":116.8855,"ARG_OF_PERICENTER":73.7419,"MEAN_ANOMALY":61.2636,"EPHEMERIS_TYPE":0,"CLASSIFICATION_TYPE":"U","NORAD_CAT_ID":67729,"ELEMENT_SET_NO":999,"REV_AT_EPOCH":431,"BSTAR":-0.01474,"MEAN_MOTION_DOT":-0.01846605,"MEAN_MOTION_DDOT":0},{"OBJECT_NAME":"STARLINK-36747","OBJECT_ID":"2026-026K","EPOCH":"2026-03-03T12:00:00.998784","MEAN_MOTION":15.74150912,"ECCENTRICITY":0.0001719,"INCLINATION":97.2836,"RA_OF_ASC_NODE":116.882,"ARG_OF_PERICENTER":75.021,"MEAN_ANOMALY":50.8685,"EPHEMERIS_TYPE":0,"CLASSIFICATION_TYPE":"U","NORAD_CAT_ID":67730,"ELEMENT_SET_NO":999,"REV_AT_EPOCH":431,"BSTAR":-0.014814,"MEAN_MOTION_DOT":-0.01847778,"MEAN_MOTION_DDOT":0},{"OBJECT_NAME":"STARLINK-36315","OBJECT_ID":"2026-026L","EPOCH":"2026-03-03T12:00:00.998784","MEAN_MOTION":15.74428845,"ECCENTRICITY":0.0001668,"INCLINATION":97.284,"RA_OF_ASC_NODE":116.8883,"ARG_OF_PERICENTER":84.0623,"MEAN_ANOMALY":57.3961,"EPHEMERIS_TYPE":0,"CLASSIFICATION_TYPE":"U","NORAD_CAT_ID":67731,"ELEMENT_SET_NO":999,"REV_AT_EPOCH":431,"BSTAR":-0.01466,"MEAN_MOTION_DOT":-0.01850301,"MEAN_MOTION_DDOT":0},{"OBJECT_NAME":"STARLINK-36260","OBJECT_ID":"2026-026M","EPOCH":"2026-03-03T12:00:00.998784","MEAN_MOTION":15.74809565,"ECCENTRICITY":0.0001737,"INCLINATION":97.284,"RA_OF_ASC_NODE":116.892,"ARG_OF_PERICENTER":78.14,"MEAN_ANOMALY":72.0557,"EPHEMERIS_TYPE":0,"CLASSIFICATION_TYPE":"U","NORAD_CAT_ID":67732,"ELEMENT_SET_NO":999,"REV_AT_EPOCH":431,"BSTAR":-0.014428,"MEAN_MOTION_DOT":-0.01851367,"MEAN_MOTION_DDOT":0},{"OBJECT_NAME":"STARLINK-36746","OBJECT_ID":"2026-026N","EPOCH":"2026-03-03T12:00:00.998784","MEAN_MOTION":15.54625813,"ECCENTRICITY":0.000176,"INCLINATION":97.2841,"RA_OF_ASC_NODE":116.7802,"ARG_OF_PERICENTER":82.676,"MEAN_ANOMALY":155.8979,"EPHEMERIS_TYPE":0,"CLASSIFICATION_TYPE":"U","NORAD_CAT_ID":67733,"ELEMENT_SET_NO":999,"REV_AT_EPOCH":431,"BSTAR":-0.030746,"MEAN_MOTION_DOT":-0.01805049,"MEAN_MOTION_DDOT":0}]
