STARLINK-36385          
1 67717U 26025AA  26062.25103538  .00376331  00000+0  18605-2 0  9990
2 67717  97.2867 173.6168 0004579 292.1420  67.9362 15.81061260  4935
CZ-2F DEB               
1 67718U 26024E   26058.50732833  .00191604  00000+0  35886-2 0  9997
2 67718  50.3169  68.5830 0246509 240.0171 117.6115 15.20915897  3086
CZ-2F DEB               
1 67719U 26024F   26062.43051244  .00154944  00000+0  37659-2 0  9991
2 67719  49.7921  52.0253 0317922 246.3783 110.3486 15.01613849  3305
CZ-2F DEB               
1 67720U 26024G   26062.40699199  .00148745  00000+0  37157-2 0  9992
2 67720  49.8313  52.6569 0328736 242.4792 114.2388 14.98925947  3619
STARLINK-36772          
1 67721U 26026A   26062.50001156 -.01837785  00000+0 -15948-1 0  9991
2 67721  97.2842 116.8549 0001505  71.7577 349.9455 15.72295657  4312
STARLINK-36796          
1 67722U 26026B   26062.50001156 -.01838979  00000+0 -16561-1 0  9990
2 67722  97.2841 116.8554 0001531  76.8849 345.8699 15.71425233  4314
STARLINK-36369          
1 67723U 26026C   26062.50001156 -.01841083  00000+0 -16301-1 0  9993
2 67723  97.2839 116.8593 0001580  71.2652   0.4676 15.71828826  4314
STARLINK-36752          
1 67724U 26026D   26062.50001156 -.01844700  00000+0 -15458-1 0  9995
2 67724  97.2839 116.8668 0001631  74.6897  13.8605 15.73123117  4316
STARLINK-36754          
1 67725U 26026E   26062.50001156 -.01838592  00000+0 -17190-1 0  9993
2 67725  97.2840 116.8608 0001587  72.8110   1.9919 15.70535069  4317
STARLINK-36755          
1 67726U 26026F   26062.50001156 -.01833819  00000+0 -18977-1 0  9995
2 67726  97.2840 116.8538 0001482  75.0841 343.3795 15.68084521  4314
STARLINK-36741          
1 67727U 26026G   26062.50001156 -.01834892  00000+0 -18127-1 0  9995
2 67727  97.2840 116.8609 0001552  73.9124   1.1601 15.69209123  4316
STARLINK-36757          
1 67728U 26026H   26062.50001156 -.01849971  00000+0 -15136-1 0  9997
2 67728  97.2839 116.8783 0001640  72.4571  45.1476 15.73687152  4311
STARLINK-36751          
1 67729U 26026J   26062.50001156 -.01846605  00000+0 -14740-1 0  9999
2 67729  97.2842 116.8855 0001753  73.7419  61.2636 15.74249628  4316
STARLINK-36747          
1 67730U 26026K   26062.50001156 -.01847778  00000+0 -14814-1 0  9995
2 67730  97.2836 116.8820 0001719  75.0210  50.8685 15.74150912  4314
STARLINK-36315          
1 67731U 26026L   26062.50001156 -.01850301  00000+0 -14660-1 0  9991
2 67731  97.2840 116.8883 0001668  84.0623  57.3961 15.74428845  4312
STARLINK-36260          
1 67732U 26026M   26062.50001156 -.01851367  00000+0 -14428-1 0  9997
2 67732  97.2840 116.8920 0001737  78.1400  72.0557 15.74809565  4316
STARLINK-36746          
1 67733U 26026N   26062.50001156 -.01805049  00000+0 -30746-1 0  9995
2 67733  97.2841 116.7802 0001760  82.6760 155.8979 15.54625813  4319
